{
  "type": "FeatureCollection",
  "features": [
    {
      "type": "Feature",
      "properties": {
        "norad_id": 41556,
        "name": "ZIYUAN 3-2 (ZY 3-2)",
        "group": "resource",
        "lat": -81.0670728291786,
        "lon": -176.18209625177636,
        "alt_km": 500.3823339088267,
        "timestamp": "2025-12-11T10:53:15.542230+00:00",
        "meta_object_name": "ZIYUAN 3-2 (ZY 3-2)",
        "meta_object_id": "2016-033A",
        "meta_epoch": "2025-12-11T04:59:26.097216",
        "meta_mean_motion": 15.21466975,
        "meta_eccentricity": 0.0012407,
        "meta_inclination": 97.4041,
        "meta_ra_of_asc_node": 59.3999,
        "meta_arg_of_pericenter": 254.8898,
        "meta_mean_anomaly": 105.0965,
        "meta_ephemeris_type": 0,
        "meta_classification_type": "U",
        "meta_norad_cat_id": 41556,
        "meta_element_set_no": 999,
        "meta_rev_at_epoch": 52940,
        "meta_bstar": 0.00052979,
        "meta_mean_motion_dot": 0.00011873,
        "meta_mean_motion_ddot": 0,
        "tle_line1": "1 41556U 16033A   25345.20794094  .00011873  00000+0  52979-3 0  9992",
        "tle_line2": "2 41556  97.4041  59.3999 0012407 254.8898 105.0965 15.21466975529402"
      },
      "geometry": {
        "type": "Point",
        "coordinates": [
          -176.18209625177636,
          -81.0670728291786
        ]
      }
    },
    {
      "type": "Feature",
      "properties": {
        "norad_id": 41599,
        "name": "CARTOSAT-2C",
        "group": "resource",
        "lat": -38.82783478172934,
        "lon": -143.35066855727106,
        "alt_km": 521.0624109022228,
        "timestamp": "2025-12-11T10:53:15.542242+00:00",
        "meta_object_name": "CARTOSAT-2C",
        "meta_object_id": "2016-040A",
        "meta_epoch": "2025-12-11T03:36:14.408928",
        "meta_mean_motion": 15.19270706,
        "meta_eccentricity": 0.0010907,
        "meta_inclination": 97.4766,
        "meta_ra_of_asc_node": 42.4162,
        "meta_arg_of_pericenter": 70.0952,
        "meta_mean_anomaly": 290.1456,
        "meta_ephemeris_type": 0,
        "meta_classification_type": "U",
        "meta_norad_cat_id": 41599,
        "meta_element_set_no": 999,
        "meta_rev_at_epoch": 52516,
        "meta_bstar": 0.00038722,
        "meta_mean_motion_dot": 8.113e-05,
        "meta_mean_motion_ddot": 0,
        "tle_line1": "1 41599U 16040A   25345.15016677  .00008113  00000+0  38722-3 0  9998",
        "tle_line2": "2 41599  97.4766  42.4162 0010907  70.0952 290.1456 15.19270706525162"
      },
      "geometry": {
        "type": "Point",
        "coordinates": [
          -143.35066855727106,
          -38.82783478172934
        ]
      }
    },
    {
      "type": "Feature",
      "properties": {
        "norad_id": 41601,
        "name": "SKYSAT-C1",
        "group": "resource",
        "lat": -32.69327368310467,
        "lon": -161.97237944933923,
        "alt_km": 476.1401621251198,
        "timestamp": "2025-12-11T10:53:15.542253+00:00",
        "meta_object_name": "SKYSAT-C1",
        "meta_object_id": "2016-040C",
        "meta_epoch": "2025-12-11T02:07:35.122080",
        "meta_mean_motion": 15.32539274,
        "meta_eccentricity": 0.0002566,
        "meta_inclination": 96.9828,
        "meta_ra_of_asc_node": 22.195,
        "meta_arg_of_pericenter": 20.1228,
        "meta_mean_anomaly": 340.0116,
        "meta_ephemeris_type": 0,
        "meta_classification_type": "U",
        "meta_norad_cat_id": 41601,
        "meta_element_set_no": 999,
        "meta_rev_at_epoch": 52902,
        "meta_bstar": 0.00042235,
        "meta_mean_motion_dot": 0.00013208,
        "meta_mean_motion_ddot": 0,
        "tle_line1": "1 41601U 16040C   25345.08860095  .00013208  00000+0  42235-3 0  9990",
        "tle_line2": "2 41601  96.9828  22.1950 0002566  20.1228 340.0116 15.32539274529023"
      },
      "geometry": {
        "type": "Point",
        "coordinates": [
          -161.97237944933923,
          -32.69327368310467
        ]
      }
    },
    {
      "type": "Feature",
      "properties": {
        "norad_id": 41603,
        "name": "LAPAN-A3",
        "group": "resource",
        "lat": 1.2673296776097178,
        "lon": -17.102356047872743,
        "alt_km": 467.95668324741473,
        "timestamp": "2025-12-11T10:53:15.542264+00:00",
        "meta_object_name": "LAPAN-A3",
        "meta_object_id": "2016-040E",
        "meta_epoch": "2025-12-11T04:36:35.278272",
        "meta_mean_motion": 15.31530408,
        "meta_eccentricity": 0.0009833,
        "meta_inclination": 97.1433,
        "meta_ra_of_asc_node": 342.8045,
        "meta_arg_of_pericenter": 339.8663,
        "meta_mean_anomaly": 20.219,
        "meta_ephemeris_type": 0,
        "meta_classification_type": "U",
        "meta_norad_cat_id": 41603,
        "meta_element_set_no": 999,
        "meta_rev_at_epoch": 52602,
        "meta_bstar": 0.00019534,
        "meta_mean_motion_dot": 5.881e-05,
        "meta_mean_motion_ddot": 0,
        "tle_line1": "1 41603U 16040E   25345.19207498  .00005881  00000+0  19534-3 0  9990",
        "tle_line2": "2 41603  97.1433 342.8045 0009833 339.8663  20.2190 15.31530408526029"
      },
      "geometry": {
        "type": "Point",
        "coordinates": [
          -17.102356047872743,
          1.2673296776097178
        ]
      }
    },
    {
      "type": "Feature",
      "properties": {
        "norad_id": 41604,
        "name": "BIROS",
        "group": "resource",
        "lat": -80.27866596526036,
        "lon": 63.26533592768766,
        "alt_km": 313.26763071202095,
        "timestamp": "2025-12-11T10:53:15.542275+00:00",
        "meta_object_name": "BIROS",
        "meta_object_id": "2016-040F",
        "meta_epoch": "2025-12-11T02:10:11.449920",
        "meta_mean_motion": 15.88965505,
        "meta_eccentricity": 0.0003224,
        "meta_inclination": 97.0705,
        "meta_ra_of_asc_node": 16.4571,
        "meta_arg_of_pericenter": 155.3544,
        "meta_mean_anomaly": 204.7884,
        "meta_ephemeris_type": 0,
        "meta_classification_type": "U",
        "meta_norad_cat_id": 41604,
        "meta_element_set_no": 999,
        "meta_rev_at_epoch": 52846,
        "meta_bstar": 0.00075595,
        "meta_mean_motion_dot": 0.0021286,
        "meta_mean_motion_ddot": 1.8142e-05,
        "tle_line1": "1 41604U 16040F   25345.09041030  .00212860  18142-4  75595-3 0  9995",
        "tle_line2": "2 41604  97.0705  16.4571 0003224 155.3544 204.7884 15.88965505528467"
      },
      "geometry": {
        "type": "Point",
        "coordinates": [
          63.26533592768766,
          -80.27866596526036
        ]
      }
    },
    {
      "type": "Feature",
      "properties": {
        "norad_id": 41727,
        "name": "GAOFEN-3",
        "group": "resource",
        "lat": -11.5068084777912,
        "lon": 169.3345467870544,
        "alt_km": 756.1726080349672,
        "timestamp": "2025-12-11T10:53:15.542285+00:00",
        "meta_object_name": "GAOFEN-3",
        "meta_object_id": "2016-049A",
        "meta_epoch": "2025-12-11T05:00:26.307648",
        "meta_mean_motion": 14.42212849,
        "meta_eccentricity": 0.0001461,
        "meta_inclination": 98.4041,
        "meta_ra_of_asc_node": 350.8179,
        "meta_arg_of_pericenter": 63.5064,
        "meta_mean_anomaly": 296.6275,
        "meta_ephemeris_type": 0,
        "meta_classification_type": "U",
        "meta_norad_cat_id": 41727,
        "meta_element_set_no": 999,
        "meta_rev_at_epoch": 49155,
        "meta_bstar": 5.2362e-05,
        "meta_mean_motion_dot": 1.29e-06,
        "meta_mean_motion_ddot": 0,
        "tle_line1": "1 41727U 16049A   25345.20863782  .00000129  00000+0  52362-4 0  9999",
        "tle_line2": "2 41727  98.4041 350.8179 0001461  63.5064 296.6275 14.42212849491556"
      },
      "geometry": {
        "type": "Point",
        "coordinates": [
          169.3345467870544,
          -11.5068084777912
        ]
      }
    },
    {
      "type": "Feature",
      "properties": {
        "norad_id": 41771,
        "name": "SKYSAT-C4",
        "group": "resource",
        "lat": 74.85476828210584,
        "lon": -142.56038070064383,
        "alt_km": 431.7657239837072,
        "timestamp": "2025-12-11T10:53:15.542296+00:00",
        "meta_object_name": "SKYSAT-C4",
        "meta_object_id": "2016-058B",
        "meta_epoch": "2025-12-11T01:05:49.291296",
        "meta_mean_motion": 15.42167765,
        "meta_eccentricity": 0.0001348,
        "meta_inclination": 96.9378,
        "meta_ra_of_asc_node": 10.3152,
        "meta_arg_of_pericenter": 134.0132,
        "meta_mean_anomaly": 226.1227,
        "meta_ephemeris_type": 0,
        "meta_classification_type": "U",
        "meta_norad_cat_id": 41771,
        "meta_element_set_no": 999,
        "meta_rev_at_epoch": 51641,
        "meta_bstar": 0.00048523,
        "meta_mean_motion_dot": 0.00020747,
        "meta_mean_motion_ddot": 0,
        "tle_line1": "1 41771U 16058B   25345.04570939  .00020747  00000+0  48523-3 0  9990",
        "tle_line2": "2 41771  96.9378  10.3152 0001348 134.0132 226.1227 15.42167765516419"
      },
      "geometry": {
        "type": "Point",
        "coordinates": [
          -142.56038070064383,
          74.85476828210584
        ]
      }
    }
  ]
}